0 COSMOS 2251 DEB
1 37956U 93036BPF 13282.43644869  .00008151  00000-0  19919-2 0  1810
2 37956 074.0518 079.6671 0057471 233.7769 156.9615 14.51702431151563
0 COSMOS 2251 DEB
1 37956U 93036BPF 13284.43553631  .00008027  00000-0  19613-2 0  1822
2 37956 074.0506 075.9036 0057355 229.5614 164.4628 14.51720985151851
0 COSMOS 2251 DEB
1 37956U 93036BPF 13285.82131027  .00006615  00000-0  16170-2 0  1834
2 37956 074.0497 073.2958 0057517 227.0721 206.3572 14.51736710152067
0 COSMOS 2251 DEB
1 37956U 93036BPF 13286.87101861  .00006745  00000-0  16485-2 0  1847
2 37956 074.0501 071.3207 0057450 224.7517 292.5051 14.51747899152218
0 COSMOS 2251 DEB
1 37956U 93036BPF 13288.10415659  .00011517  00000-0  28064-2 0  1858
2 37956 074.0503 069.0001 0057424 222.2300 257.1769 14.51767316152398
0 COSMOS 2251 DEB
1 37956U 93036BPF 13290.36074997  .00009704  00000-0  23648-2 0  1864
2 37956 074.0512 064.7537 0057326 217.5850 170.9299 14.51801976152719
0 COSMOS 2251 DEB
1 37956U 93036BPF 13295.75897537  .00010011  00000-0  24353-2 0  1873
2 37956 074.0517 054.5958 0057150 206.7317 304.8356 14.51884180153509
